[{"OBJECT_NAME":"STARLINK-3182","OBJECT_ID":"2022-010P","EPOCH":"2026-03-09T21:28:49.025568","MEAN_MOTION":15.08846899,"ECCENTRICITY":0.00012033,"INCLINATION":53.2172,"RA_OF_ASC_NODE":278.1992,"ARG_OF_PERICENTER":94.4875,"MEAN_ANOMALY":265.6255,"EPHEMERIS_TYPE":0,"CLASSIFICATION_TYPE":"U","NORAD_CAT_ID":51469,"ELEMENT_SET_NO":999,"REV_AT_EPOCH":22685,"BSTAR":7.38792e-6,"MEAN_MOTION_DOT":-1.7e-6,"MEAN_MOTION_DDOT":0},{"OBJECT_NAME":"PRSC-S1","OBJECT_ID":"2025-164A","EPOCH":"2026-03-09T14:34:55.095168","MEAN_MOTION":15.0891951,"ECCENTRICITY":0.0004466,"INCLINATION":41.129,"RA_OF_ASC_NODE":129.3637,"ARG_OF_PERICENTER":348.3012,"MEAN_ANOMALY":11.7698,"EPHEMERIS_TYPE":0,"CLASSIFICATION_TYPE":"U","NORAD_CAT_ID":65055,"ELEMENT_SET_NO":999,"REV_AT_EPOCH":3340,"BSTAR":0.00046631,"MEAN_MOTION_DOT":7.316e-5,"MEAN_MOTION_DDOT":0}]
